domain,country,region,city,postcode,road,house_number
saintmlc.com,United States,Ohio,,44805,East Maine Street,26
kiddsmith.com,United States,California,Oceanside,92054,Riviera Drive,117
neutresalon.com,United States,Delaware,Wilmington,19801,South Market Street,101
cabwhp.org,United States,California,Los Angeles,90009,South La Cienega Boulevard,9800
seedsourceag.com,United States,Missouri,Kansas City,64129,Chiefs Way,
atlanticbeach-nc.com,United States,North Carolina,,28512,West Fort Macon Road,125
fcllp.com,United States,New York,City of New York,10035,Lexington Avenue,570
umbrawindowtinting.com,United States,Illinois,,60068,West Higgins Road,811
stmatthewmedina.org,United States,Arkansas,,72761,North Broadway Street,400
embcmonroe.org,France,Auvergne-Rhône-Alpes,,01170,Rue Saint-Maurice,503
wyandottewinery.com,United States,Ohio,Columbus,43230,Wyandotte Drive,4640
allenvillagejewelers.com,United States,Texas,Allen,75002,East Stacy Road,190
dillonmusic.com,United States,Florida,Daytona Beach,32114,Fulton Street,325
billproctorandassociates.com,United States,Michigan,,48304,South Boulevard,2050
hennejewelers.com,United States,Pennsylvania,Philadelphia,19139,Walnut Street,5501
howardinsuranceinc.com,United States,Indiana,,46742,East Bellefontaine Road,3925
roensalvage.com,United States,Maryland,Baltimore,21202,East Redwood Street,180
habeggercorp.com,United States,Ohio,,45241,Enterprise Park Drive,11413
unitedairconditioning.com,United States,Florida,,33773,South Belcher Road,13150
www.virginiaheadwaters.org,United States,Virginia,Staunton,24401,Greenville Avenue,617
hscpoly.com,United States,Michigan,,48623,Geddes Road,12334
mid-america.com,United States,Texas,Houston,77017,Broadway Street,2500
www.maguirechevroletofithaca.com,United States,New York,City of Ithaca,14850,Cinema Drive,35
fresnogreekfest.com,United States,California,Fresno,93703,North Orchard Street,2219
teamsunbuilders.com,United States,California,,92270,Monterey Avenue,40101
chcseia.com,United States,Texas,Houston,77007,Spring Street,2409
selnertreeshrubcare.com,中国,香港 Hong Kong,香港島 Hong Kong Island,,,72
heidimitchellgolf.com,United States,Georgia,,30039,Clubside View Court Southwest,3254
royersford.com,United States,Pennsylvania,,19027,Township Line Road,835
www.daslawgroup.com,United States,North Carolina,Charlotte,28207,Queens Road,438
thecharlescompany.com,United States,Arizona,,85248,East Riggs Road,9666
aaronsantosdentistry.com,United States,California,,95032,South Bascom Avenue,14529
andersrice.com,United States,North Carolina,Asheville,28806,Patton Avenue,1428
enidmad.org,United States,Arkansas,Little Rock,72205,North University Avenue,129
jonesmachine.com,United States,Utah,Salt Lake City,84108,Foothill Drive,1590
gipreit.com,United States,Florida,Tampa,33602,East Jackson Street,401
stmindustries.com,United States,Florida,,33624,North Trask Street,9524
athensgop.com,United States,Georgia,Athens-Clarke County Unified Government,30601,North Finley Street,
crossroadsretreat.org,United States,California,Oakland,94618,Cross Road,255
youthchallengesports.com,United States,Texas,Corpus Christi,78412,Sharon Drive,800
grablerealestate.com,United States,Texas,Fort Worth,76116,Camp Bowie Boulevard,6387
westcoastseafood.com,United States,California,Simi Valley,93065,East Los Angeles Avenue,2814
christsmission.org,United States,Illinois,,60442,South Cedar Road,22811
lnrothberg.com,United States,Colorado,Boulder,80304,Cedar Avenue,550
postermuseum.com,United States,New York,City of New York,10007,Chambers Street,122
ncc.us,United States,Illinois,,60523,Commerce Drive,815
corpimprints.com,United States,Colorado,Denver,80223,Lipan Street,55
kaleabay.com,United States,Florida,,34110,Old Coast Road,13910
dynamichealthcarolinas.com,United States,North Carolina,Charlotte,28209,South Boulevard,4705
tripeek.com,New Zealand / Aotearoa,Auckland,Albert-Eden,1021,Mountain View Road,12
casaallegra.org,United States,California,San Rafael,94903,Mitchell Boulevard,35
sterlingridingacademy.com,United States,New York,,13656,County Road 3,22444
wisr.edu,United States,California,Berkeley,94707,San Pedro Avenue,1812;1820
naceyes.com,United States,North Dakota,Fargo,58102,North University Drive,3208
adgcreative.net,United States,Maryland,,21046,Columbia Gateway Drive,7151
tristatecontainer.com,United States,Minnesota,,55422,Bridgewater Road,1440
bayareaturf.net,United States,California,Livermore,94551,Nissen Drive,2310
bestnapleshomesearch.com,United States,Alabama,Montgomery,36109,Pine Ridge Road,1495
platformq.com,Australia,Queensland,Brisbane City,4007,Crescent Road,100
treehill.org,United States,Florida,Jacksonville,32211,Lone Star Road,7152
crownpaintinginc.com,United States,California,,95356,Galaxy Way,641
ekeepersystems.com,United States,Indiana,,47396,West Kilgore Avenue,7701
stgcom.com,United States,Ohio,,44408,Wardingley Avenue,1401
masterrenovationsinc.com,United States,Iowa,Council Bluffs,51503,North Broadway,
cbssquaredinc.com,Canada,Ontario,Tay,L0K 1R0,First Avenue,615
mattressplus.tv,United States,Louisiana,Shreveport,71105,Youree Drive,3964
inetmotors.com,United States,Texas,,75234,Villa Creek Drive,2695
merrickgroupinc.com,United States,Pennsylvania,,18202,Unico Drive,100
boccarossainsurance.com,United States,Connecticut,Milford,06460,Bridgeport Avenue,220
americansurvey.com,United States,Illinois,Chicago,60602,North LaSalle Street,120
perryridgelandfill.com,United States,Illinois,,62832,Sacred Heart Road,6305
thesophiacenterforspirituality.org,United States,New York,City of Rochester,14611,West Main Street,701
urbanacres.com,United States,Kentucky,Lexington,40502,Holiday Road,250
dmaa.net,United Kingdom,England,London,SW15 3SZ,Telegraph Road,
lombardglobal.com,United States,Texas,Austin,78701,West 2nd Street,500
cincinnatifleetcare.com,United States,Ohio,,45246,Commerce Park Drive,10000
ossininglibrary.org,United States,New York,,10562,Croton Avenue,53
violenceinterventionprogram.org,United States,California,Los Angeles,90031,Griffin Avenue,1721
abmechanical.com,United States,California,Livermore,94550,Railroad Avenue,2252
salvometalworks.com,United States,Ohio,Columbus,43201,West 5th Avenue,566
creative-earthscapes.com,Canada,Ontario,Oakville,L6J 4M6,Morrison Road,376
sacredspacemiami.com,United States,Florida,Miami,33137,Northeast 24th Street,105
jonesgrove.com,United States,North Carolina,Charlotte,28209,Mockingbird Lane,1515
truesmilesmiami.com,United States,Florida,Kendall,33156,Southwest 92nd Street,8500
johanningsinc.com,United States,Ohio,,44641,Trojan Street Northeast,5945
betterratemortgage.com,United States,Missouri,Saint Louis,63139,Hampton Avenue,1118
centerlinelogistics.com,United States,Washington,Seattle,98116,Southwest Spokane Street,
pswrehab.com,United States,Pennsylvania,Scranton,18509,West Poplar Avenue,194
lamprinostv.com,United States,Vermont,,05758,Old Turnpike Road,2629
dreng.com,United States,California,,95498,Desoto Court,
whitehallcamp.org,United States,Pennsylvania,,16373,Whitehall Road,580
uniquelibrary.com,United States,Virginia,Alexandria,22301,East Maple Street,119
ecocolorssalon.com,United States,North Carolina,Wake Forest,27587,North Rock Springs Road,
poulsbofamilydentistry.com,United States,Washington,,98370,Powder Hill Place Northeast,19255
mulchandsod.com,United States,Florida,,32703,Apopka Boulevard,2773
bcpas.com,United States,Kentucky,Louisville,40203,East College Street,308
smokyhillmuseum.org,United States,Kansas,Salina,67401,West Iron Avenue,211
airstreamlosangeles.com,United States,California,,91776,East Las Tunas Drive,1212
safebasementsinc.com,Australia,New South Wales,Sydney,2192,Minnie Street,
campwalden-ny.com,United States,New York,,12814,Trout Lake Road,429
cjmcbride.org,United States,Arkansas,,72732,Fox Hollow Road,17644
marysvillelib.org,United States,North Carolina,Durham,27703,South Plum Street,231
sardisbaptist.com,United States,North Carolina,,28079,Unionville Indian Trail Road West,3602
tellusoperating.com,United States,New Jersey,,08750,Crescent Place,602
pchandy.net,United States,Ohio,Cleveland,44120,Larchmere Boulevard,12702
abc-assembly.com,United States,Texas,,77040,Empire Central Drive,7230
erling.com,United States,Texas,New Braunfels,78130,Benelli Drive,225
stationinnpa.com,United States,Ohio,,44017,Front Street,827
frclothingandsupply.com,United States,Colorado,,80651,Justin Avenue,340
reshapelifesciences.com,United States,California,Irvine,92618,Technology Drive,18
trinityairmedical.com,United States,Indiana,Kokomo,46091,Galveston Road,
terraliftinternational.com,New Zealand / Aotearoa,Wellington,Wellington,6023,Valley Street,10
newportbutane.com,United States,California,,91706,Ornelas Street,15763
paisansrest.com,Canada,Ontario,Hamilton,L9G 1N1,Wilson Street West,131
kleinwoodvision.com,United States,Texas,,77379,Louetta Road,7312
sprucemountaininn.com,United States,Vermont,,05667,Towne Avenue,155
westbrosinc.com,United States,Texas,Fort Worth,76119,South Riverside Drive,4740
yanceyworks.com,United States,California,Roseville,95678,Reserve Drive,919
quantumhelicopters.com,United States,Arizona,Chandler,85286,South Heliport Way,
premierdentalcareofbuckhead.com,United States,West Virginia,Huntington,25704,Piedmont Road,3580
fccmwc.org,United States,Oklahoma,,73130,East Reno Avenue,11950
toplinetireandauto.com,United States,Florida,,34606,Commercial Way,3371
blueoceanvillas.com,United States,Mississippi,,39564,Saratoga Drive,234
elchicanomusic.com,United States,Arizona,Scottsdale,85256,North 92nd Street,524
birminghambuilder.com,United States,Alabama,,35216,International Park Place,
pripo.com,United States,New York,,14094,Church Street,77
fantasyphotography.com,United States,Arizona,Avondale,85392,West Indian School Road,10665
tetonthaivillage.com,United States,Wyoming,,83025,Granite Loop Road,7342
santaclarajumpers.com,United States,California,Santa Clara,95050,Walsh Avenue,2116
coregearusa.com,United States,California,Riverside,92508,East Alessandro Boulevard,231
moline.com,United States,Massachusetts,Quincy,02170,South Central Avenue,114
meditatingentrepreneur.com,United States,Alabama,Florence,35630,North Court Street,110
weberortho.com,United States,Arizona,Phoenix,85029,West Willow Avenue,210
folsomshope.org,United States,California,Folsom,95630,Blue Ravine Road,1100
coxreels.com,United States,Arizona,Tempe,85283,South Ash Avenue,5865
lchealth.org,United States,California,San Jose,95112,Jackson Street,161
teladata.com,United States,California,Fremont,94536,Civic Center Drive,39300
canceriq.com,Canada,Ontario,,N9J 2Z9,Michigan Avenue,400
salesianhigh.org,United States,Connecticut,New Britain,06052,East Main Street,148
bootleggerlasvegas.com,United States,Nevada,,89123,South Las Vegas Boulevard,7700
tcors.com,United Kingdom,England,London,W1F 7AL,Broadwick Street,43
usmrc.org,United States,Rhode Island,,02842,Aquidneck Avenue,344
gokeyless.com,United States,Missouri,,65441,Mound Road,955
wheelalignmenttorrance.com,United States,California,Los Angeles,90501,Sepulveda Boulevard,1623
stonearchcapital.com,United States,Minnesota,Minneapolis,55402,South 7th Street,40
henges.com,United States,Missouri,,63045,Shoreline Drive,4133
vbclink.com,United States,South Dakota,Sioux Falls,57106,South Westlake Drive,
turntablelab.com,United States,New York,City of New York,11205,Flushing Avenue,63
barefootinternational.com,United States,Wisconsin,Milwaukee,53212,North Richards Street,3879
www.thekoisushi.com,United States,California,Oakland,94603,106th Avenue,1150
switcheyecenter.com,United States,New York,,14067,Telegraph Road,8950
shadowhills.org,United States,Nevada,Las Vegas,89128,Vegas Drive,7811
armstrongambulance.com,United States,New Hampshire,Manchester,03103,Mystic Street,87
airservicesco.com,United States,Illinois,,60007,Seegers Avenue,211
billingssecuritycameras.com,United States,Montana,Billings,59101,Broadwater Avenue,230
pusd.us,United States,California,Pasadena,91109,South Hudson Avenue,351
outoftownclothing.com,United States,Minnesota,,55082,Market Drive,1750
heritagelifestyledoors.com,United States,Colorado,Denver,80212,West 38th Avenue,4300
photoartsmarin.com,Canada,Ontario,Ottawa,K2E 6G2,Birchwood Drive,21
greatstatetransmissions.com,United States,Texas,Corpus Christi,78418,South Padre Island Drive,
hvac-tech.com,United States,Illinois,Chicago,60629,South Kolin Avenue,4500-4532
cre8group.com,United States,Florida,Tampa,33611,West Ballast Point Boulevard,3107
camphillvillage.org,United States,New York,,12516,Camp Hill Road,84
magnummobilesv.com,United States,Arizona,Phoenix,85027,North 19th Avenue,23225
nationalforests.org,United States,Montana,Missoula,59804,Fort Missoula Road,27
wtxfoodbank.org,United States,Texas,Odessa,79761,South Pagewood Avenue,411
thornefinancialpartners.com,United States,New York,,14127,Independence Drive,100
vermes.com,United States,California,San Jose,95131,Ringwood Avenue,2226
zahlungsvereinbarung.com,United States,Florida,Sunrise,33323,Northwest 124th Way,2974
bosch.ventures,中国,上海市,长宁区,200335,福泉北路,333
themartialartscentre.com,United States,North Carolina,Charlotte,28126,Chilford Court,
ebrattridge.com,United States,Georgia,,30117,Chancery Lane,209
snaresbrookprep.org,United Kingdom,England,London,E18 2EA,Woodford Road,75
carteraccountants.co.uk,United Kingdom,England,,LE19 4SD,Warren Park Way,
ratio.co.uk,United Kingdom,England,London,N4 3RR,Albert Road,18
mathews.co.uk,United Kingdom,England,Exeter,EX2 8QH,Trusham Road,
tokyoto-luggage.com,United States,New York,,13416,Old City Road,160
stationcars.co.uk,United Kingdom,England,London,SW17 7TW,Upper Tooting Road,100
standardgroup.co.uk,United Kingdom,England,,SN3 3JB,Garrard Way,
malonesedinburgh.com,United Kingdom,Alba / Scotland,City of Edinburgh,EH3 8DT,Morrison Street,242
thompsonbrothers.net,United Kingdom,England,London,E7 9BP,Wellington Road,111
pinehills.com,United Kingdom,England,Sheffield,S8 8AD,Summerhouse Drive,33
imajica.com,United Kingdom,Alba / Scotland,City of Edinburgh,EH2 4NF,Albyn Place,10
andersonhoare.co.uk,United Kingdom,England,London,SW1W 9SA,Eccleston Place,25
londoncouncils.gov.uk,United Kingdom,England,City of London,EC4R 9AB,Arthur Street,12
worldoffootball.com,United Kingdom,England,Cambridge,CB5 8LA,Newmarket Road,10
walternewbury.co.uk,United Kingdom,England,,ME5 7EL,Rainham Road,123
balconyshirts.co.uk,Australia,Victoria,Melbourne,3011,Windsor Street,52
millsselig.com,Canada,Ontario,Ottawa,K1R 7G2,Arthur Street,21
dizzysquirrel.com,United Kingdom,England,Harborough,LE17 4NA,Dunley Way,
pfsc.co.uk,United Kingdom,Alba / Scotland,City of Edinburgh,EH6 8NT,Smith's Place,19
epcarlson.co.uk,United States,Connecticut,,06777,New Preston Hill Road,47
foamtechniques.co.uk,United Kingdom,England,,NN8 6GR,Booth Drive,39
shiresequestrian.com,United States,Massachusetts,Boston,02124,Southern Avenue,15
optionschelmsford.com,United Kingdom,England,Coventry,CV5 6JZ,Broomfield Road,43
wjec.co.uk,United Kingdom,Cymru / Wales,Cardiff,CF5 2YX,Western Avenue,245
dukesbrewandque.com,United Kingdom,England,London,N1 5AA,Downham Road,33
southamptoncruisecentre.com,Canada,Ontario,Old Toronto,M4L 1Y9,Highfield Road,298
montalt.co.uk,United Kingdom,England,London,E17 6PZ,Palmerston Road,71
depinna.com,United Kingdom,England,City of London,EC3V 9DU,Birchin Lane,
edch.org.uk,Éire / Ireland,,,A94 X827,Seafield Road,26
miketibbatts.co.uk,Australia,Victoria,Melbourne,3808,St Georges Road,36
redkitebaby.co.uk,United Kingdom,England,London,SW18 5DR,Lavenham Road,
priorandwillisantiques.co.uk,United States,Kentucky,,42503,Old Salts Road,47
zumajay.co.uk,United Kingdom,England,,EX23 8BR,Belle Vue Lane,20
vcut.co.uk,United Kingdom,England,London,EC1M 5SY,Turnmill Street,75A
northernirelandscreen.co.uk,Australia,Victoria,Melbourne,3068,Alfred Street,21
